start=new Date('2022-11-01T00:00:00.000Z').valueOf();
sats=[{"LAUNCH_DATE":"2022-07-11","MEAN_MOTION":"15.01270583","CENTER_NAME":"EARTH","APOAPSIS":"563.700","OBJECT_TYPE":"PAYLOAD","ARG_OF_PERICENTER":"35.1743","SITE":"AFWTR","MEAN_ANOMALY":"324.9549","TIME_SYSTEM":"UTC","FILE":"3639522","SEMIMAJOR_AXIS":"6941.114","PERIOD":"95.919","CLASSIFICATION_TYPE":"U","REV_AT_EPOCH":"1714","COUNTRY_CODE":"US","OBJECT_NAME":"STARLINK-4338","TLE_LINE2":"2 53055  97.6509 124.1611 0001038  35.1743 324.9549 15.01270583 17148","OBJECT_ID":"2022-077N","MEAN_MOTION_DOT":"0.00002758","INCLINATION":"97.6509","ECCENTRICITY":"0.00010380","RCS_SIZE":"LARGE","NORAD_CAT_ID":"53055","DECAY_DATE":null,"ELEMENT_SET_NO":"999","TLE_LINE1":"1 53055U 22077N   22304.81845140  .00002758  00000-0  21915-3 0  9991","PERIAPSIS":"562.259","EPHEMERIS_TYPE":"0","REF_FRAME":"TEME","BSTAR":"0.00021915000000","MEAN_ELEMENT_THEORY":"SGP4","RA_OF_ASC_NODE":"124.1611","MEAN_MOTION_DDOT":"0.0000000000000","GP_ID":"216619118","EPOCH":"2022-10-31T19:38:34.200960"},{"ELEMENT_SET_NO":"999","TLE_LINE1":"1 53056U 22077P   22304.82216111  .00001559  00000-0  12588-3 0  9997","EPHEMERIS_TYPE":"0","PERIAPSIS":"561.721","REF_FRAME":"TEME","BSTAR":"0.00012588000000","ECCENTRICITY":"0.00018250","RCS_SIZE":"LARGE","NORAD_CAT_ID":"53056","DECAY_DATE":null,"RA_OF_ASC_NODE":"124.1689","GP_ID":"216619287","MEAN_MOTION_DDOT":"0.0000000000000","EPOCH":"2022-10-31T19:43:54.719904","MEAN_ELEMENT_THEORY":"SGP4","OBJECT_TYPE":"PAYLOAD","ARG_OF_PERICENTER":"52.1381","SITE":"AFWTR","TIME_SYSTEM":"UTC","MEAN_ANOMALY":"308.0008","SEMIMAJOR_AXIS":"6941.123","FILE":"3639522","LAUNCH_DATE":"2022-07-11","MEAN_MOTION":"15.01267715","CENTER_NAME":"EARTH","APOAPSIS":"564.255","OBJECT_NAME":"STARLINK-4314","TLE_LINE2":"2 53056  97.6523 124.1689 0001825  52.1381 308.0008 15.01267715 17147","OBJECT_ID":"2022-077P","MEAN_MOTION_DOT":"0.00001559","INCLINATION":"97.6523","PERIOD":"95.919","CLASSIFICATION_TYPE":"U","REV_AT_EPOCH":"1714","COUNTRY_CODE":"US"},{"RA_OF_ASC_NODE":"124.1497","MEAN_MOTION_DDOT":"0.0000000000000","GP_ID":"216619627","EPOCH":"2022-10-31T19:33:14.743872","MEAN_ELEMENT_THEORY":"SGP4","ELEMENT_SET_NO":"999","TLE_LINE1":"1 53057U 22077Q   22304.81475398 -.00001033  00000-0 -75826-4 0  9995","PERIAPSIS":"562.213","EPHEMERIS_TYPE":"0","REF_FRAME":"TEME","BSTAR":"-0.00007582600000","ECCENTRICITY":"0.00011700","RCS_SIZE":"LARGE","DECAY_DATE":null,"NORAD_CAT_ID":"53057","OBJECT_NAME":"STARLINK-4252","TLE_LINE2":"2 53057  97.6528 124.1497 0001170  97.8344 262.3013 15.01255766 17149","OBJECT_ID":"2022-077Q","INCLINATION":"97.6528","MEAN_MOTION_DOT":"-0.00001033","PERIOD":"95.920","CLASSIFICATION_TYPE":"U","REV_AT_EPOCH":"1714","COUNTRY_CODE":"US","OBJECT_TYPE":"PAYLOAD","ARG_OF_PERICENTER":"97.8344","MEAN_ANOMALY":"262.3013","SITE":"AFWTR","TIME_SYSTEM":"UTC","SEMIMAJOR_AXIS":"6941.160","FILE":"3639522","LAUNCH_DATE":"2022-07-11","MEAN_MOTION":"15.01255766","CENTER_NAME":"EARTH","APOAPSIS":"563.837"},{"MEAN_MOTION_DDOT":"0.0000000000000","GP_ID":"216619039","EPOCH":"2022-10-31T18:02:56.774400","RA_OF_ASC_NODE":"124.0960","MEAN_ELEMENT_THEORY":"SGP4","EPHEMERIS_TYPE":"0","PERIAPSIS":"562.383","REF_FRAME":"TEME","BSTAR":"-0.00016031000000","ELEMENT_SET_NO":"999","TLE_LINE1":"1 53058U 22077R   22304.75204600 -.00002118  00000-0 -16031-3 0  9992","DECAY_DATE":null,"NORAD_CAT_ID":"53058","RCS_SIZE":"LARGE","ECCENTRICITY":"0.00008410","OBJECT_ID":"2022-077R","INCLINATION":"97.6510","MEAN_MOTION_DOT":"-0.00002118","TLE_LINE2":"2 53058  97.6510 124.0960 0000841  43.2144 316.9146 15.01274707 17130","OBJECT_NAME":"STARLINK-4317","CLASSIFICATION_TYPE":"U","COUNTRY_CODE":"US","REV_AT_EPOCH":"1713","PERIOD":"95.918","TIME_SYSTEM":"UTC","SITE":"AFWTR","MEAN_ANOMALY":"316.9146","FILE":"3639522","SEMIMAJOR_AXIS":"6941.102","ARG_OF_PERICENTER":"43.2144","OBJECT_TYPE":"PAYLOAD","CENTER_NAME":"EARTH","MEAN_MOTION":"15.01274707","APOAPSIS":"563.550","LAUNCH_DATE":"2022-07-11"},{"INCLINATION":"97.6528","MEAN_MOTION_DOT":"-0.00000599","OBJECT_ID":"2022-077S","OBJECT_NAME":"STARLINK-4320","TLE_LINE2":"2 53059  97.6528 124.1437 0001277 128.4976 231.6363 15.01272768 17143","REV_AT_EPOCH":"1714","COUNTRY_CODE":"US","CLASSIFICATION_TYPE":"U","PERIOD":"95.919","SEMIMAJOR_AXIS":"6941.107","FILE":"3639522","SITE":"AFWTR","TIME_SYSTEM":"UTC","MEAN_ANOMALY":"231.6363","OBJECT_TYPE":"PAYLOAD","ARG_OF_PERICENTER":"128.4976","APOAPSIS":"563.859","MEAN_MOTION":"15.01272768","CENTER_NAME":"EARTH","LAUNCH_DATE":"2022-07-11","EPOCH":"2022-10-31T19:28:15.806784","GP_ID":"216618701","MEAN_MOTION_DDOT":"0.0000000000000","RA_OF_ASC_NODE":"124.1437","MEAN_ELEMENT_THEORY":"SGP4","BSTAR":"-0.00004206700000","REF_FRAME":"TEME","PERIAPSIS":"562.086","EPHEMERIS_TYPE":"0","TLE_LINE1":"1 53059U 22077S   22304.81129406 -.00000599  00000-0 -42067-4 0  9990","ELEMENT_SET_NO":"999","RCS_SIZE":"LARGE","DECAY_DATE":null,"NORAD_CAT_ID":"53059","ECCENTRICITY":"0.00012770"},{"OBJECT_ID":"2022-077T","INCLINATION":"97.6524","MEAN_MOTION_DOT":"-0.00000479","TLE_LINE2":"2 53060  97.6524 124.1518 0000845  77.3904 282.7415 15.01270818 17143","OBJECT_NAME":"STARLINK-4305","CLASSIFICATION_TYPE":"U","COUNTRY_CODE":"US","REV_AT_EPOCH":"1714","PERIOD":"95.919","SITE":"AFWTR","MEAN_ANOMALY":"282.7415","TIME_SYSTEM":"UTC","SEMIMAJOR_AXIS":"6941.114","FILE":"3639522","ARG_OF_PERICENTER":"77.3904","OBJECT_TYPE":"PAYLOAD","CENTER_NAME":"EARTH","MEAN_MOTION":"15.01270818","APOAPSIS":"563.565","LAUNCH_DATE":"2022-07-11","GP_ID":"216618870","MEAN_MOTION_DDOT":"0.0000000000000","EPOCH":"2022-10-31T19:35:54.642624","RA_OF_ASC_NODE":"124.1518","MEAN_ELEMENT_THEORY":"SGP4","EPHEMERIS_TYPE":"0","PERIAPSIS":"562.392","BSTAR":"-0.00003273000000","REF_FRAME":"TEME","ELEMENT_SET_NO":"999","TLE_LINE1":"1 53060U 22077T   22304.81660466 -.00000479  00000-0 -32730-4 0  9991","DECAY_DATE":null,"NORAD_CAT_ID":"53060","RCS_SIZE":"LARGE","ECCENTRICITY":"0.00008450"},{"TLE_LINE1":"1 53061U 22077U   22304.74255470  .00001415  00000-0  11466-3 0  9990","ELEMENT_SET_NO":"999","BSTAR":"0.00011466000000","REF_FRAME":"TEME","EPHEMERIS_TYPE":"0","PERIAPSIS":"561.702","ECCENTRICITY":"0.00017950","NORAD_CAT_ID":"53061","DECAY_DATE":null,"RCS_SIZE":"LARGE","RA_OF_ASC_NODE":"124.0734","EPOCH":"2022-10-31T17:49:16.726080","MEAN_MOTION_DDOT":"0.0000000000000","GP_ID":"216619885","MEAN_ELEMENT_THEORY":"SGP4","ARG_OF_PERICENTER":"106.4347","OBJECT_TYPE":"PAYLOAD","SEMIMAJOR_AXIS":"6941.083","FILE":"3639522","SITE":"AFWTR","TIME_SYSTEM":"UTC","MEAN_ANOMALY":"253.7074","LAUNCH_DATE":"2022-07-11","APOAPSIS":"564.194","CENTER_NAME":"EARTH","MEAN_MOTION":"15.01280638","TLE_LINE2":"2 53061  97.6536 124.0734 0001795 106.4347 253.7074 15.01280638 17135","OBJECT_NAME":"STARLINK-4308","INCLINATION":"97.6536","MEAN_MOTION_DOT":"0.00001415","OBJECT_ID":"2022-077U","PERIOD":"95.918","COUNTRY_CODE":"US","REV_AT_EPOCH":"1713","CLASSIFICATION_TYPE":"U"},{"MEAN_ELEMENT_THEORY":"SGP4","EPOCH":"2022-10-31T19:30:34.997184","GP_ID":"216619457","MEAN_MOTION_DDOT":"0.0000000000000","RA_OF_ASC_NODE":"124.1470","RCS_SIZE":"LARGE","DECAY_DATE":null,"NORAD_CAT_ID":"53062","ECCENTRICITY":"0.00008460","REF_FRAME":"TEME","BSTAR":"-0.00010635000000","PERIAPSIS":"562.391","EPHEMERIS_TYPE":"0","TLE_LINE1":"1 53062U 22077V   22304.81290506 -.00001425  00000-0 -10635-3 0  9998","ELEMENT_SET_NO":"999","REV_AT_EPOCH":"1714","COUNTRY_CODE":"US","CLASSIFICATION_TYPE":"U","PERIOD":"95.919","MEAN_MOTION_DOT":"-0.00001425","INCLINATION":"97.6531","OBJECT_ID":"2022-077V","OBJECT_NAME":"STARLINK-4311","TLE_LINE2":"2 53062  97.6531 124.1470 0000846 122.5684 237.5622 15.01271056 17142","APOAPSIS":"563.565","MEAN_MOTION":"15.01271056","CENTER_NAME":"EARTH","LAUNCH_DATE":"2022-07-11","SEMIMAJOR_AXIS":"6941.113","FILE":"3639522","MEAN_ANOMALY":"237.5622","SITE":"AFWTR","TIME_SYSTEM":"UTC","ARG_OF_PERICENTER":"122.5684","OBJECT_TYPE":"PAYLOAD"},{"LAUNCH_DATE":"2022-07-11","APOAPSIS":"567.107","MEAN_MOTION":"15.00450604","CENTER_NAME":"EARTH","ARG_OF_PERICENTER":"353.3891","OBJECT_TYPE":"PAYLOAD","FILE":"3639522","SEMIMAJOR_AXIS":"6943.643","SITE":"AFWTR","MEAN_ANOMALY":"6.7302","TIME_SYSTEM":"UTC","PERIOD":"95.971","REV_AT_EPOCH":"1711","COUNTRY_CODE":"US","CLASSIFICATION_TYPE":"U","OBJECT_NAME":"STARLINK-4307","TLE_LINE2":"2 53063  97.6553 123.9945 0002303 353.3891   6.7302 15.00450604 17110","INCLINATION":"97.6553","MEAN_MOTION_DOT":"-0.00000522","OBJECT_ID":"2022-077W","ECCENTRICITY":"0.00023030","RCS_SIZE":"LARGE","DECAY_DATE":null,"NORAD_CAT_ID":"53063","TLE_LINE1":"1 53063U 22077W   22304.53151355 -.00000522  00000-0 -36868-4 0  9990","ELEMENT_SET_NO":"999","REF_FRAME":"TEME","BSTAR":"-0.00003686800000","PERIAPSIS":"563.909","EPHEMERIS_TYPE":"0","MEAN_ELEMENT_THEORY":"SGP4","RA_OF_ASC_NODE":"123.9945","EPOCH":"2022-10-31T12:45:22.770720","MEAN_MOTION_DDOT":"0.0000000000000","GP_ID":"216619119"},{"OBJECT_ID":"2022-077X","MEAN_MOTION_DOT":"0.00000789","INCLINATION":"97.6526","TLE_LINE2":"2 53064  97.6526 124.1436 0001516 132.9415 227.1937 15.01261489 17145","OBJECT_NAME":"STARLINK-4313","CLASSIFICATION_TYPE":"U","COUNTRY_CODE":"US","REV_AT_EPOCH":"1714","PERIOD":"95.919","MEAN_ANOMALY":"227.1937","SITE":"AFWTR","TIME_SYSTEM":"UTC","FILE":"3639522","SEMIMAJOR_AXIS":"6941.142","OBJECT_TYPE":"PAYLOAD","ARG_OF_PERICENTER":"132.9415","CENTER_NAME":"EARTH","MEAN_MOTION":"15.01261489","APOAPSIS":"564.060","LAUNCH_DATE":"2022-07-11","MEAN_MOTION_DDOT":"0.0000000000000","GP_ID":"216619288","EPOCH":"2022-10-31T19:27:54.715680","RA_OF_ASC_NODE":"124.1436","MEAN_ELEMENT_THEORY":"SGP4","EPHEMERIS_TYPE":"0","PERIAPSIS":"561.955","BSTAR":"0.00006598700000","REF_FRAME":"TEME","ELEMENT_SET_NO":"999","TLE_LINE1":"1 53064U 22077X   22304.81104995  .00000789  00000-0  65987-4 0  9997","DECAY_DATE":null,"NORAD_CAT_ID":"53064","RCS_SIZE":"MEDIUM","ECCENTRICITY":"0.00015160"}];
